[{"OBJECT_NAME":"STARLINK-5441","OBJECT_ID":"2022-175AF","EPOCH":"2026-03-09T23:00:52.193952","MEAN_MOTION":15.08825404,"ECCENTRICITY":0.00010426,"INCLINATION":53.2176,"RA_OF_ASC_NODE":42.6299,"ARG_OF_PERICENTER":92.6743,"MEAN_ANOMALY":267.4369,"EPHEMERIS_TYPE":0,"CLASSIFICATION_TYPE":"U","NORAD_CAT_ID":54787,"ELEMENT_SET_NO":999,"REV_AT_EPOCH":17996,"BSTAR":-4.6085012e-5,"MEAN_MOTION_DOT":-1.021e-5,"MEAN_MOTION_DDOT":0},{"OBJECT_NAME":"OBJECT BE","OBJECT_ID":"2018-099BE","EPOCH":"2026-03-09T15:10:24.322944","MEAN_MOTION":15.09972337,"ECCENTRICITY":0.0006427,"INCLINATION":97.4031,"RA_OF_ASC_NODE":111.7891,"ARG_OF_PERICENTER":340.4925,"MEAN_ANOMALY":19.6058,"EPHEMERIS_TYPE":0,"CLASSIFICATION_TYPE":"U","NORAD_CAT_ID":43810,"ELEMENT_SET_NO":999,"REV_AT_EPOCH":39698,"BSTAR":0.00027209,"MEAN_MOTION_DOT":4.358e-5,"MEAN_MOTION_DDOT":0}]
